CLUSTER II-FM7 (SAMBA)  
1 26410U 00041A   21328.05934647  .00000567  00000+0  00000+0 0  9998
2 26410 133.3320 345.8564 5207420 195.3427   0.4087  0.44225346 24663
CLUSTER II-FM6 (SALSA)  
1 26411U 00041B   21330.31304569  .00000661  00000+0  00000+0 0  9990
2 26411 134.6398 348.2846 6786214 199.9342   0.2976  0.44218035 23989
INTELSAT 9 (IS-9)       
1 26451U 00043A   21327.71067896 -.00000272  00000+0  00000+0 0  9994
2 26451   6.7787  62.6032 0003728 180.8663  25.3083  1.00271925 27430
CLUSTER II-FM5 (RUMBA)  
1 26463U 00045A   21328.05550489  .00000674  00000+0  00000+0 0  9997
2 26463 138.2557 348.4138 6317261 200.4385   0.3692  0.44221366 25244
CLUSTER II-FM8 (TANGO)  
1 26464U 00045B   21330.31915932  .00000617  00000+0  00000+0 0  9995
2 26464 133.3322 345.8708 5210500 195.3651   0.3204  0.44220682 60596
NSS-11 (AAP-1)          
1 26554U 00059A   21327.86335203  .00000042  00000+0  00000+0 0  9995
2 26554   0.0346  58.7771 0002632 187.5737 303.5204  1.00273475 24599
USA 153                 
1 26575U 00065A   21327.93868757 -.00000309  00000+0  00000+0 0  9995
2 26575   8.7559  46.9400 0001728 199.1767 289.3877  1.00274908 14901
AMC-6 (GE-6)            
1 26580U 00067A   21327.64329109  .00000121  00000+0  00000+0 0  9995
2 26580   0.0155   3.5360 0003192 248.9102 262.9858  1.00272044 77219
INTELSAT 1R (IS-1R)     
1 26608U 00072A   21328.21032771 -.00000122  00000+0  00000+0 0  9994
2 26608   3.9262  82.3863 0000231 299.1303 274.7146  1.00271306 76946
ANIK F1                 
1 26624U 00076A   21328.23398117 -.00000045  00000+0  00000+0 0  9991
2 26624   0.9181  95.0807 0003944 106.8302 196.5428  1.00272588 77024
ASTRA 2D                
1 26638U 00081A   21327.97656480  .00000145  00000+0  00000+0 0  9992
2 26638   6.8626  61.6456 0001678 180.4271 196.3823  1.00275692 76689
AMC-8 (GE-8)            
1 26639U 00081B   21327.65777854  .00000105  00000+0  00000+0 0  9993
2 26639   1.9323  90.7172 0002832 160.3052 273.6367  1.00271683 76627
NAVSTAR 50 (USA 156)    
1 26690U 01004A   21327.62197407  .00000004  00000+0  00000+0 0  9991
2 26690  53.7963  94.3478 0000950 242.0322 115.6238  1.91595498151602
ODIN                    
1 26702U 01007A   21327.59520722  .00001057  00000+0  71156-4 0  9998
2 26702  97.5314 341.1945 0008992 276.3813  83.6392 15.08809376135224
USA 157 (MILSTAR-2 2)   
1 26715U 01009A   21327.73173963  .00000027  00000+0  00000+0 0  9992
2 26715   9.8180  28.0912 0003006 217.0223 316.9751  1.00275810 16246
EUTELSAT 133 WEST A     
1 26719U 01011A   21328.16067418  .00000094  00000+0  00000+0 0  9998
2 26719   3.2104  84.6337 0002452 162.4296 101.3032  1.00269597 75877
BSAT-2A                 
1 26720U 01011B   21327.03895642 -.00000146  00000+0  00000+0 0  9992
2 26720   7.1800  60.2975 0003647 164.9759 212.0574  0.99180627 75448
INTELSAT 10 (IS-10)     
1 26766U 01019A   21327.63443660  .00000051  00000+0  00000+0 0  9999
2 26766   5.0931  75.0578 0004011 179.4566 214.5175  1.00271388 28918
INTELSAT 901 (IS-901)   
1 26824U 01024A   21328.18017348 -.00000186  00000+0  00000+0 0  9991
2 26824   0.0428  86.7215 0001060 165.0129 209.0117  1.00270794 74885
ASTRA 2C                
1 26853U 01025A   21327.79645073 -.00000242  00000+0  00000+0 0  9995
2 26853   4.0698  81.1392 0002903 168.9344  27.1711  1.00269511 28336
ICO F2                  
1 26857U 01026A   21323.27462746 -.00000027  00000+0  00000+0 0  9994
2 26857  44.8546 269.8752 0016723 356.9910   3.0183  3.92404086139994
USA 159 (DSP 21)        
1 26880U 01033A   21327.85392490 -.00000283  00000+0  00000+0 0  9998
2 26880  11.2410  27.0342 0001376 212.7433  81.5670  1.00276513 16258
INTELSAT 902 (IS-902)   
1 26900U 01039A   21327.81826017 -.00000265  00000+0  00000+0 0  9990
2 26900   1.8913  91.1940 0003035 155.4812  60.8138  1.00272515 73988
PCSAT (NO-44)           
1 26931U 01043C   21328.20185885  .00000002  00000+0  32633-4 0  9994
2 26931  67.0514 228.1523 0005881 278.4872  81.5562 14.30644606 52209
PROBA-1                 
1 26958U 01049B   21328.16443746  .00000662  00000+0  61881-4 0  9996
2 26958  97.7921 283.6037 0071057 309.7503  49.7474 14.95847129 93785
BIRD 2                  
1 26959U 01049C   21327.64906295  .00003392  00000+0  86806-4 0  9999
2 26959  97.7792  41.2191 0008338  38.7264 321.4577 15.40172230421476
TIMED                   
1 26998U 01055B   21327.51329924  .00000170  00000+0  22383-4 0  9994
2 26998  74.0719 329.8119 0002815 269.9085  90.1773 14.88388730 82504
MAROC-TUBSAT            
1 27004U 01056D   21328.21032587 -.00000029  00000+0  17775-4 0  9991
2 27004  99.5952 103.9479 0020645 101.1305  20.6237 13.70149959998032
COSMOS 2385             
1 27056U 01058B   21327.81278959  .00000016  00000+0  32705-4 0  9995
2 27056  82.5395 205.4924 0006756  35.9816 324.1728 12.60515211915990
COSMOS 2386             
1 27057U 01058C   21328.13709580  .00000040  00000+0  16760-3 0  9990
2 27057  82.5462 200.7096 0000270  74.5809 285.5323 12.61561946916775
USA 164 (MILSTAR-2 3)   
1 27168U 02001A   21327.90382477  .00000115  00000+0  00000+0 0  9997
2 27168   9.2949  29.8321 0002676 225.2756 152.3298  1.00271287 14940
RHESSI                  
1 27370U 02004A   21327.86397873  .00005169  00000+0  14419-3 0  9993
2 27370  38.0312 197.1259 0012940 306.6878  53.2705 15.36731285 94912
ECHOSTAR 7              
1 27378U 02006A   21327.87626032  .00000016  00000+0  00000+0 0  9999
2 27378   0.0322  55.1070 0001509 207.1093 357.5141  1.00272835 33898
INTELSAT 904 (IS-904)   
1 27380U 02007A   21328.10947705 -.00000197  00000+0  00000+0 0  9994
2 27380   2.7253  88.0596 0003091 158.0988 187.0591  1.00271421 72388
TDRS 9                  
1 27389U 02011A   21327.92539667 -.00000272  00000+0  00000+0 0  9995
2 27389   8.5859  62.6721 0024945 284.9135 346.3417  1.00276818 73737
ASTRA 3A                
1 27400U 02015B   21327.48688686 -.00000188  00000+0  00000+0 0  9996
2 27400   6.9712  60.4797 0001729 194.6277 256.0667  1.00270310 72014
NSS-7                   
1 27414U 02019A   21327.78586885 -.00000142  00000+0  00000+0 0  9996
2 27414   5.4229  72.9409 0002462 178.6257  74.3235  1.00270850 71851
AQUA                    
1 27424U 02022A   21328.18912088  .00000178  00000+0  49534-4 0  9992
2 27424  98.2257 267.3240 0001645 105.2203   2.2981 14.57111146 40330
DIRECTV 5 (TEMPO 1)     
1 27426U 02023A   21328.18660431 -.00000039  00000+0  00000+0 0  9994
2 27426   0.6107  95.4130 0003534 153.6286 131.4066  1.00271814 71592
INTELSAT 905 (IS-905)   
1 27438U 02027A   21327.82340604 -.00000167  00000+0  00000+0 0  9990
2 27438   2.5463  88.8347 0002844 151.3858  94.7447  1.00272532 34658
GALAXY 3C (G-3C)        
1 27445U 02030A   21327.48190288 -.00000134  00000+0  00000+0 0  9999
2 27445   0.0191 302.9945 0001865  23.9656 174.1598  1.00269776 29798
EUTELSAT 5 WEST A       
1 27460U 02035A   21328.11436128 -.00000025  00000+0  00000+0 0  9997
2 27460   1.8114  91.5447 0005949 157.1324 210.8274  1.00270597 71043
COSMOS 2390             
1 27464U 02036A   21328.19383750  .00000002  00000+0 -54616-4 0  9994
2 27464  82.4813 306.6051 0024512 305.1310  54.7471 12.44577799880570
COSMOS 2391             
1 27465U 02036B   21327.83688045  .00000018  00000+0  57179-4 0  9993
2 27465  82.4811 304.0447 0025260 301.8102  58.0517 12.44898695880741
METEOSAT-8 (MSG-1)      
1 27509U 02040B   21327.83648878  .00000151  00000+0  00000+0 0  9991
2 27509   7.6609  51.7068 0002196 176.0181 177.7509  1.00276252 70549
INTELSAT 906 (IS-906)   
1 27513U 02041A   21327.75674615  .00000031  00000+0  00000+0 0  9993
2 27513   1.5577  92.8191 0002908 144.8232 161.8818  1.00272384 70319
HISPASAT 30W-4          
1 27528U 02044A   21327.72798925  .00000134  00000+0  00000+0 0  9994
2 27528   2.3300  89.0238 0003945 165.7947 287.1973  1.00274424 26261
INTEGRAL                
1 27540U 02048A   21327.82916667  .00000471  00000+0  00000+0 0  9992
2 27540  69.1186  73.0402 8966288 299.9528  39.0436  0.37587306 20385
TDRS 10                 
1 27566U 02055A   21327.75451441  .00000106  00000+0  00000+0 0  9999
2 27566   7.8306  51.0696 0005777 311.5158 160.9928  1.00277762 69528
NSS-6                   
1 27603U 02057A   21327.79444958  .00000125  00000+0  00000+0 0  9993
2 27603   1.0929  93.8897 0003489 152.8040 292.8040  1.00271286 69332
LATINSAT B              
1 27606U 02058B   21327.94703299  .00000072  00000+0  32640-4 0  9991
2 27606  64.5560 295.7639 0065785 348.9122  11.0524 14.72413435 16486
SAUDISAT 1C (SO-50)     
1 27607U 02058C   21327.68139911  .00000105  00000+0  35402-4 0  9993
2 27607  64.5548 211.4004 0060431 337.1729  22.6688 14.75835398 18008
LATINSAT A              
1 27612U 02058H   21327.66952686  .00000059  00000+0  27115-4 0  9999
2 27612  64.5563  69.8100 0050582 307.3080  52.3419 14.79654970 20631
NIMIQ 2                 
1 27632U 02062A   21327.10777163 -.00000137  00000+0  00000+0 0  9997
2 27632   5.5296  72.0802 0003710 227.7562 147.4084  1.00027899 27474
CORIOLIS                
1 27640U 03001A   21327.52609248  .00000011  00000+0  26151-4 0  9994
2 27640  98.7211 334.8071 0013702 333.8742 189.2791 14.19090351977742
SORCE                   
1 27651U 03004A   21328.11552033  .00000272  00000+0  42135-4 0  9993
2 27651  39.9958 283.5306 0022006 111.2070 249.1072 14.89444827 22465
NAVSTAR 51 (USA 166)    
1 27663U 03005A   21327.59971627 -.00000014  00000+0  00000+0 0  9997
2 27663  55.6590 281.2325 0122421  38.3552 134.6121  2.00576800137880
USA 167                 
1 27691U 03008A   21327.57873484  .00000070  00000+0  00000+0 0  9992
2 27691   7.6412  55.8830 0000294   2.8391  82.3402  1.00269394 16240
NAVSTAR 52 (USA 168)    
1 27704U 03010A   21327.58566824 -.00000081  00000+0  00000+0 0  9991
2 27704  54.9378  31.6535 0245061 299.3083  83.0846  2.00570724136683
